TDRS 3                  
1 19548U 88091B   22348.37271696 -.00000286  00000+0  00000+0 0  9998
2 19548  13.5841 349.9266 0040006 329.2615 208.9687  1.00264466112540
HST                     
1 20580U 90037B   22349.27408213  .00003512  00000+0  19203-3 0  9999
2 20580  28.4712  49.9906 0002546 181.0832 221.6335 15.11408957593851
TDRS 5                  
1 21639U 91054B   22349.02192969  .00000098  00000+0  00000+0 0  9993
2 21639  14.2232   3.2401 0025433 348.4955 292.5330  1.00263627114874
TDRS 6                  
1 22314U 93003B   22349.04754633 -.00000281  00000+0  00000+0 0  9999
2 22314  14.1420   6.5037 0007739 144.3030 264.1302  1.00274859109541
TDRS 7                  
1 23613U 95035B   22348.78308418 -.00000189  00000+0  00000+0 0  9992
2 23613  13.9085 357.2105 0023977  51.7129  41.2759  1.00273175100419
ISS (ZARYA)             
1 25544U 98067A   22349.69494484  .00009378  00000+0  17231-3 0  9991
2 25544  51.6423 157.4258 0004005 164.0593 286.0486 15.49962276373336
LANDSAT 7               
1 25682U 99020A   22349.65906792  .00000413  00000+0  95548-4 0  9999
2 25682  97.9559  30.6760 0001046  84.0502 276.0821 14.59857530259000
TERRA                   
1 25994U 99068A   22349.46921315  .00000445  00000+0  10460-3 0  9998
2 25994  98.1189  57.2207 0000409 321.8858  48.7857 14.58940033222998
TDRS 8                  
1 26388U 00034A   22348.78409940 -.00000220  00000+0  00000+0 0  9997
2 26388  10.6519  41.3035 0018195 331.0526  82.7763  1.00270711 82340
TIMED                   
1 26998U 01055B   22349.26829241  .00001352  00000+0  14764-3 0  9994
2 26998  74.0725 279.3383 0000894 233.4689 126.6410 14.89005757140058
TDRS 9                  
1 27389U 02011A   22348.49987791 -.00000272  00000+0  00000+0 0  9996
2 27389   9.4029  59.1747 0026030 294.0821 207.6516  1.00270951 77595
AQUA                    
1 27424U 02022A   22349.48069306  .00000867  00000+0  20079-3 0  9992
2 27424  98.2679 289.8310 0001722  59.5412  55.4056 14.57514649 96591
TDRS 10                 
1 27566U 02055A   22348.53373841  .00000105  00000+0  00000+0 0  9995
2 27566   8.5327  48.9415 0005479 312.7911 102.4532  1.00274892 73384
SORCE                   
1 27651U 03004A   22348.54599364  .00002165  00000+0  23075-3 0  9995
2 27651  39.9957 291.5361 0023556 297.5975  62.2423 14.90503379 79946
AURA                    
1 28376U 04026A   22348.82289426  .00000814  00000+0  19071-3 0  9991
2 28376  98.2299 289.7184 0001366  89.0721 271.0633 14.57105916979498
SWIFT                   
1 28485U 04047A   22348.70015004  .00004892  00000+0  28147-3 0  9995
2 28485  20.5559 123.9293 0010640  66.4607 293.6945 15.07746461990775
THEMIS A                
1 30580U 07004A   22348.72210029 -.00000083  00000+0 -31708-1 0  9991
2 30580  12.6398 325.9915 8356875 203.3615 107.6356  0.87833350 30023
THEMIS D                
1 30797U 07004D   22349.46872441 -.00000062  00000+0  00000+0 0  9990
2 30797   8.5429 313.9736 8308751 218.8164 356.0194  0.87835703 54244
THEMIS E                
1 30798U 07004E   22349.24361690 -.00000087  00000+0  00000+0 0  9993
2 30798   9.6225 329.5211 8303223 205.1724 275.9032  0.87839158 54655
AIM                     
1 31304U 07015A   22348.87475403  .00013004  00000+0  58613-3 0  9994
2 31304  97.8604 275.2064 0006004 102.1974 257.9933 15.21167124858589
FGRST (GLAST)           
1 33053U 08029A   22348.75092454  .00002455  00000+0  11942-3 0  9993
2 33053  25.5845  17.2586 0012248 109.7670 250.4187 15.12783203801021
WISE                    
1 36119U 09071A   22349.58474119  .00009925  00000+0  28372-3 0  9995
2 36119  97.2207  20.4765 0003254  48.1659 311.9863 15.36174300723306
TDRS 11                 
1 39070U 13004A   22348.76123736  .00000097  00000+0  00000+0 0  9995
2 39070   2.7940 351.6320 0003522  55.1493 136.2874  1.00274627 36146
TDRS 12                 
1 39504U 14004A   22348.71608590 -.00000252  00000+0  00000+0 0  9993
2 39504   3.7236 350.7160 0002099 237.6536  71.8922  1.00268720 31434
GPM-CORE                
1 39574U 14009C   22348.91955506  .00023589  00000+0  34056-3 0  9998
2 39574  64.9998 294.0367 0009045 278.5286  81.4835 15.55904656499694
MMS 1                   
1 40482U 15011A   22340.00000000 -.00000462  00000+0  00000+0 0  9998
2 40482  29.8645  90.6975 8885110  68.6877  27.8487  0.28543168 13785
MMS 2                   
1 40483U 15011B   22340.00000000 -.00000462  00000+0  00000+0 0  9999
2 40483  29.8634  90.7119 8884903  68.6636  27.8507  0.28530615 13761
MMS 3                   
1 40484U 15011C   22340.00000000 -.00000462  00000+0  00000+0 0  9990
2 40484  29.8683  90.6956 8884943  68.6766  27.8760  0.28543389 13765
MMS 4                   
1 40485U 15011D   22340.00000000 -.00000462  00000+0  00000+0 0  9991
2 40485  29.8658  90.7068 8886129  68.6684  27.8509  0.28530602 13765
TDRS 13                 
1 42915U 17047A   22349.29580215 -.00000082  00000+0  00000+0 0  9991
2 42915   4.2327 335.3817 0012920 116.3008  87.2596  1.00271014 19546
JPSS-1                  
1 43013U 17073A   22349.57978158  .00000107  00000+0  71441-4 0  9997
2 43013  98.7353 285.4248 0000585 103.4921 256.6320 14.19535938262922
